SENTINEL-6              
1 46984U 20086A   24068.66982535 -.00000046  00000+0  65961-4 0  9992
2 46984  66.0407  60.0428 0007882 271.0652  88.9460 12.80929073153953
